CCSDS_OMM_VERS = 2.0
CREATION_DATE  = 
ORIGINATOR     = 

OBJECT_NAME    = SL-16 R/B
OBJECT_ID      = 1993-016B
CENTER_NAME    = EARTH
REF_FRAME      = TEME
TIME_SYSTEM    = UTC
MEAN_ELEMENT_THEORY = SGP/SGP4

EPOCH          = 2026-02-08T02:17:27.369024
MEAN_MOTION    = 14.15303838
ECCENTRICITY   = .00102671
INCLINATION    = 71.0069
RA_OF_ASC_NODE = 277.3417
ARG_OF_PERICENTER = 354.5204
MEAN_ANOMALY   = 5.5804

EPHEMERIS_TYPE = 0
CLASSIFICATION_TYPE = U
NORAD_CAT_ID   = 22566
ELEMENT_SET_NO = 999
REV_AT_EPOCH   = 69798
BSTAR          = -.44582234E-4
MEAN_MOTION_DOT = -.135E-5
MEAN_MOTION_DDOT = 0

CCSDS_OMM_VERS = 2.0
CREATION_DATE  = 
ORIGINATOR     = 

OBJECT_NAME    = COSMOS 2242
OBJECT_ID      = 1993-024A
CENTER_NAME    = EARTH
REF_FRAME      = TEME
TIME_SYSTEM    = UTC
MEAN_ELEMENT_THEORY = SGP/SGP4

EPOCH          = 2026-02-08T09:58:59.792448
MEAN_MOTION    = 14.96427122
ECCENTRICITY   = .00176714
INCLINATION    = 82.5190
RA_OF_ASC_NODE = 294.7156
ARG_OF_PERICENTER = 47.3808
MEAN_ANOMALY   = 312.8900

EPHEMERIS_TYPE = 0
CLASSIFICATION_TYPE = U
NORAD_CAT_ID   = 22626
ELEMENT_SET_NO = 999
REV_AT_EPOCH   = 77601
BSTAR          = .18509386E-3
MEAN_MOTION_DOT = .213E-4
MEAN_MOTION_DDOT = 0

CCSDS_OMM_VERS = 2.0
CREATION_DATE  = 
ORIGINATOR     = 

OBJECT_NAME    = SL-16 R/B
OBJECT_ID      = 1993-059B
CENTER_NAME    = EARTH
REF_FRAME      = TEME
TIME_SYSTEM    = UTC
MEAN_ELEMENT_THEORY = SGP/SGP4

EPOCH          = 2026-02-08T12:55:31.639296
MEAN_MOTION    = 14.17227498
ECCENTRICITY   = .00194937
INCLINATION    = 70.9892
RA_OF_ASC_NODE = 72.6030
ARG_OF_PERICENTER = 256.5658
MEAN_ANOMALY   = 103.3293

EPHEMERIS_TYPE = 0
CLASSIFICATION_TYPE = U
NORAD_CAT_ID   = 22803
ELEMENT_SET_NO = 999
REV_AT_EPOCH   = 67540
BSTAR          = .95936691E-4
MEAN_MOTION_DOT = .146E-5
MEAN_MOTION_DDOT = 0

CCSDS_OMM_VERS = 2.0
CREATION_DATE  = 
ORIGINATOR     = 

OBJECT_NAME    = ARIANE 40 R/B
OBJECT_ID      = 1993-061H
CENTER_NAME    = EARTH
REF_FRAME      = TEME
TIME_SYSTEM    = UTC
MEAN_ELEMENT_THEORY = SGP/SGP4

EPOCH          = 2026-02-08T03:50:34.742112
MEAN_MOTION    = 14.32845109
ECCENTRICITY   = .00108604
INCLINATION    = 98.4979
RA_OF_ASC_NODE = 108.6212
ARG_OF_PERICENTER = 17.7831
MEAN_ANOMALY   = 342.3731

EPHEMERIS_TYPE = 0
CLASSIFICATION_TYPE = U
NORAD_CAT_ID   = 22830
ELEMENT_SET_NO = 999
REV_AT_EPOCH   = 68987
BSTAR          = .10227571E-3
MEAN_MOTION_DOT = .236E-5
MEAN_MOTION_DDOT = 0

CCSDS_OMM_VERS = 2.0
CREATION_DATE  = 
ORIGINATOR     = 

OBJECT_NAME    = COSMOS 2278
OBJECT_ID      = 1994-023A
CENTER_NAME    = EARTH
REF_FRAME      = TEME
TIME_SYSTEM    = UTC
MEAN_ELEMENT_THEORY = SGP/SGP4

EPOCH          = 2026-02-08T14:25:12.622656
MEAN_MOTION    = 14.14363676
ECCENTRICITY   = .00066121
INCLINATION    = 71.0500
RA_OF_ASC_NODE = 235.9562
ARG_OF_PERICENTER = 68.6040
MEAN_ANOMALY   = 291.5787

EPHEMERIS_TYPE = 0
CLASSIFICATION_TYPE = U
NORAD_CAT_ID   = 23087
ELEMENT_SET_NO = 999
REV_AT_EPOCH   = 64069
BSTAR          = -.53734427E-4
MEAN_MOTION_DOT = -.15E-5
MEAN_MOTION_DDOT = 0

CCSDS_OMM_VERS = 2.0
CREATION_DATE  = 
ORIGINATOR     = 

OBJECT_NAME    = SL-16 R/B
OBJECT_ID      = 1994-023B
CENTER_NAME    = EARTH
REF_FRAME      = TEME
TIME_SYSTEM    = UTC
MEAN_ELEMENT_THEORY = SGP/SGP4

EPOCH          = 2026-02-08T14:09:20.746944
MEAN_MOTION    = 14.15003549
ECCENTRICITY   = .00044588
INCLINATION    = 70.9998
RA_OF_ASC_NODE = 132.0022
ARG_OF_PERICENTER = 312.6309
MEAN_ANOMALY   = 47.4438

EPHEMERIS_TYPE = 0
CLASSIFICATION_TYPE = U
NORAD_CAT_ID   = 23088
ELEMENT_SET_NO = 999
REV_AT_EPOCH   = 64197
BSTAR          = .45765809E-4
MEAN_MOTION_DOT = .41E-6
MEAN_MOTION_DDOT = 0

CCSDS_OMM_VERS = 2.0
CREATION_DATE  = 
ORIGINATOR     = 

OBJECT_NAME    = SL-16 R/B
OBJECT_ID      = 1994-074B
CENTER_NAME    = EARTH
REF_FRAME      = TEME
TIME_SYSTEM    = UTC
MEAN_ELEMENT_THEORY = SGP/SGP4

EPOCH          = 2026-02-08T14:01:51.803904
MEAN_MOTION    = 14.79372664
ECCENTRICITY   = .00056641
INCLINATION    = 97.7148
RA_OF_ASC_NODE = 71.5762
ARG_OF_PERICENTER = 327.3617
MEAN_ANOMALY   = 148.6707

EPHEMERIS_TYPE = 0
CLASSIFICATION_TYPE = U
NORAD_CAT_ID   = 23343
ELEMENT_SET_NO = 999
REV_AT_EPOCH   = 68294
BSTAR          = .83038261E-4
MEAN_MOTION_DOT = .57E-5
MEAN_MOTION_DDOT = 0

CCSDS_OMM_VERS = 2.0
CREATION_DATE  = 
ORIGINATOR     = 

OBJECT_NAME    = SL-16 R/B
OBJECT_ID      = 1994-077B
CENTER_NAME    = EARTH
REF_FRAME      = TEME
TIME_SYSTEM    = UTC
MEAN_ELEMENT_THEORY = SGP/SGP4

EPOCH          = 2026-02-08T10:35:42.941472
MEAN_MOTION    = 14.15557113
ECCENTRICITY   = .00043016
INCLINATION    = 70.9815
RA_OF_ASC_NODE = 54.0215
ARG_OF_PERICENTER = 236.3068
MEAN_ANOMALY   = 123.7645

EPHEMERIS_TYPE = 0
CLASSIFICATION_TYPE = U
NORAD_CAT_ID   = 23405
ELEMENT_SET_NO = 999
REV_AT_EPOCH   = 61209
BSTAR          = .80566516E-4
MEAN_MOTION_DOT = .11E-5
MEAN_MOTION_DDOT = 0

CCSDS_OMM_VERS = 2.0
CREATION_DATE  = 
ORIGINATOR     = 

OBJECT_NAME    = ARIANE 40+ R/B
OBJECT_ID      = 1995-021B
CENTER_NAME    = EARTH
REF_FRAME      = TEME
TIME_SYSTEM    = UTC
MEAN_ELEMENT_THEORY = SGP/SGP4

EPOCH          = 2026-02-08T05:05:21.041376
MEAN_MOTION    = 14.39750465
ECCENTRICITY   = .0006043
INCLINATION    = 98.4559
RA_OF_ASC_NODE = 111.0851
ARG_OF_PERICENTER = 222.8617
MEAN_ANOMALY   = 201.3495

EPHEMERIS_TYPE = 0
CLASSIFICATION_TYPE = U
NORAD_CAT_ID   = 23561
ELEMENT_SET_NO = 999
REV_AT_EPOCH   = 61500
BSTAR          = .13002E-3
MEAN_MOTION_DOT = .364E-5
MEAN_MOTION_DDOT = 0

CCSDS_OMM_VERS = 2.0
CREATION_DATE  = 
ORIGINATOR     = 

OBJECT_NAME    = SL-16 R/B
OBJECT_ID      = 1995-058B
CENTER_NAME    = EARTH
REF_FRAME      = TEME
TIME_SYSTEM    = UTC
MEAN_ELEMENT_THEORY = SGP/SGP4

EPOCH          = 2026-02-08T14:07:14.106144
MEAN_MOTION    = 14.15492445
ECCENTRICITY   = .0012254
INCLINATION    = 71.0189
RA_OF_ASC_NODE = 241.3523
ARG_OF_PERICENTER = 173.8061
MEAN_ANOMALY   = 186.3216

EPHEMERIS_TYPE = 0
CLASSIFICATION_TYPE = U
NORAD_CAT_ID   = 23705
ELEMENT_SET_NO = 999
REV_AT_EPOCH   = 56373
BSTAR          = .17486009E-3
MEAN_MOTION_DOT = .294E-5
MEAN_MOTION_DDOT = 0

CCSDS_OMM_VERS = 2.0
CREATION_DATE  = 
ORIGINATOR     = 

OBJECT_NAME    = SL-16 R/B
OBJECT_ID      = 1996-051B
CENTER_NAME    = EARTH
REF_FRAME      = TEME
TIME_SYSTEM    = UTC
MEAN_ELEMENT_THEORY = SGP/SGP4

EPOCH          = 2026-02-08T13:30:11.759040
MEAN_MOTION    = 14.12407240
ECCENTRICITY   = .00175447
INCLINATION    = 70.7565
RA_OF_ASC_NODE = 236.8906
ARG_OF_PERICENTER = 188.8072
MEAN_ANOMALY   = 171.2743

EPHEMERIS_TYPE = 0
CLASSIFICATION_TYPE = U
NORAD_CAT_ID   = 24298
ELEMENT_SET_NO = 999
REV_AT_EPOCH   = 51753
BSTAR          = .68150273E-4
MEAN_MOTION_DOT = .77E-6
MEAN_MOTION_DDOT = 0

CCSDS_OMM_VERS = 2.0
CREATION_DATE  = 
ORIGINATOR     = 

OBJECT_NAME    = ORBVIEW 2 (SEASTAR)
OBJECT_ID      = 1997-037A
CENTER_NAME    = EARTH
REF_FRAME      = TEME
TIME_SYSTEM    = UTC
MEAN_ELEMENT_THEORY = SGP/SGP4

EPOCH          = 2026-02-08T10:07:05.248992
MEAN_MOTION    = 14.35472021
ECCENTRICITY   = .00029234
INCLINATION    = 98.8515
RA_OF_ASC_NODE = 202.9664
ARG_OF_PERICENTER = 131.5513
MEAN_ANOMALY   = 228.5923

EPHEMERIS_TYPE = 0
CLASSIFICATION_TYPE = U
NORAD_CAT_ID   = 24883
ELEMENT_SET_NO = 999
REV_AT_EPOCH   = 50427
BSTAR          = .15890949E-3
MEAN_MOTION_DOT = .41E-5
MEAN_MOTION_DDOT = 0

