SL-16 R/B               
1 22566U 93016B   26039.09545566 -.00000135  00000+0 -44582-4 0  9997
2 22566  71.0069 277.3417 0010267 354.5204   5.5804 14.15303838697983
COSMOS 2242             
1 22626U 93024A   26039.41596982  .00002130  00000+0  18509-3 0  9991
2 22626  82.5190 294.7156 0017671  47.3808 312.8900 14.96427122776013
SL-16 R/B               
1 22803U 93059B   26039.53856064  .00000146  00000+0  95937-4 0  9995
2 22803  70.9892  72.6030 0019493 256.5658 103.3293 14.17227498675401
ARIANE 40 R/B           
1 22830U 93061H   26039.16012433  .00000236  00000+0  10228-3 0  9990
2 22830  98.4979 108.6212 0010860  17.7831 342.3731 14.32845109689873
COSMOS 2278             
1 23087U 94023A   26039.60084054 -.00000150  00000+0 -53734-4 0  9998
2 23087  71.0500 235.9562 0006612  68.6040 291.5787 14.14363676640691
SL-16 R/B               
1 23088U 94023B   26039.58982346  .00000041  00000+0  45766-4 0  9990
2 23088  70.9998 132.0022 0004458 312.6309  47.4438 14.15003549641979
SL-16 R/B               
1 23343U 94074B   26039.58462736  .00000570  00000+0  83038-4 0  9997
2 23343  97.7148  71.5762 0005664 327.3617 148.6707 14.79372664682942
SL-16 R/B               
1 23405U 94077B   26039.44146923  .00000110  00000+0  80567-4 0  9995
2 23405  70.9815  54.0215 0004301 236.3068 123.7645 14.15557113612098
ARIANE 40+ R/B          
1 23561U 95021B   26039.21204909  .00000364  00000+0  13002-3 0  9992
2 23561  98.4559 111.0851 0006043 222.8617 201.3495 14.39750465615007
SL-16 R/B               
1 23705U 95058B   26039.58835771  .00000294  00000+0  17486-3 0  9991
2 23705  71.0189 241.3523 0012254 173.8061 186.3216 14.15492445563735
SL-16 R/B               
1 24298U 96051B   26039.56263610  .00000077  00000+0  68150-4 0  9992
2 24298  70.7565 236.8906 0017544 188.8072 171.2743 14.12407240517537
ORBVIEW 2 (SEASTAR)     
1 24883U 97037A   26039.42158853  .00000410  00000+0  15891-3 0  9998
2 24883  98.8515 202.9664 0002923 131.5513 228.5923 14.35472021504275
